[{"OBJECT_NAME":"STARLINK-5766","OBJECT_ID":"2023-042AR","EPOCH":"2026-03-09T06:47:42.926208","MEAN_MOTION":15.03167581,"ECCENTRICITY":0.00023892,"INCLINATION":42.9974,"RA_OF_ASC_NODE":45.7717,"ARG_OF_PERICENTER":188.7608,"MEAN_ANOMALY":171.3193,"EPHEMERIS_TYPE":0,"CLASSIFICATION_TYPE":"U","NORAD_CAT_ID":56025,"ELEMENT_SET_NO":999,"REV_AT_EPOCH":16299,"BSTAR":0.005261799,"MEAN_MOTION_DOT":0.00072833,"MEAN_MOTION_DDOT":0},{"OBJECT_NAME":"LEMUR-2-SQUIRRELCOMM","OBJECT_ID":"2024-149DQ","EPOCH":"2026-03-09T21:26:31.466400","MEAN_MOTION":15.05887962,"ECCENTRICITY":0.00061012,"INCLINATION":97.6754,"RA_OF_ASC_NODE":150.1976,"ARG_OF_PERICENTER":42.3481,"MEAN_ANOMALY":317.8216,"EPHEMERIS_TYPE":0,"CLASSIFICATION_TYPE":"U","NORAD_CAT_ID":60578,"ELEMENT_SET_NO":999,"REV_AT_EPOCH":8545,"BSTAR":0.00060830109,"MEAN_MOTION_DOT":8.786e-5,"MEAN_MOTION_DDOT":0}]
